EUTELSAT 8 WEST B       
1 40875U 15039B   26009.17336287 -.00000057  00000+0  00000+0 0  9997
2 40875   0.0637   7.2250 0004169 279.6531 236.2555  1.00272022 38062
EUTELSAT 9B             
1 41310U 16005A   26009.00044600  .00000069  00000+0  00000+0 0  9995
2 41310   0.0191  40.3802 0004602 245.6416 191.6811  1.00269380 36521
EUTELSAT 65 WEST A      
1 41382U 16014A   26009.64025160 -.00000266  00000+0  00000+0 0  9994
2 41382   0.0576 326.5152 0002301 326.9475 340.9998  1.00271350 35946
EUTELSAT 117 WEST B     
1 41589U 16038B   26009.67752119 -.00000002  00000+0  00000+0 0  9991
2 41589   0.0076 161.2518 0000107 331.7679 103.1040  1.00271485 35072
EUTELSAT 172B           
1 42741U 17029B   26009.20104598  .00000002  00000+0  00000+0 0  9993
2 42741   0.0307 123.4405 0000124 235.0286 354.6224  1.00271107 32136
EUTELSAT 7C             
1 44334U 19034B   26009.12475453  .00000056  00000+0  00000+0 0  9992
2 44334   0.0757 179.7448 0003253  92.4027 248.4014  1.00271919  5240
EUTELSAT 5 WEST B       
1 44624U 19067A   26009.17336287 -.00000034  00000+0  00000+0 0  9993
2 44624   0.0666 338.4431 0003217 311.8027 235.8606  1.00272153 22848
EUTELSAT KONNECT        
1 45027U 20005B   26009.12475453  .00000057  00000+0  00000+0 0  9993
2 45027   0.0691  93.7478 0001400 192.4567 234.5503  1.00269852 22743
